[{"OBJECT_NAME":"CREW DRAGON 12","OBJECT_ID":"2026-031A","EPOCH":"2026-03-04T03:45:47.118240","MEAN_MOTION":15.48434477,"ECCENTRICITY":0.0008201,"INCLINATION":51.6316,"RA_OF_ASC_NODE":99.7104,"ARG_OF_PERICENTER":155.0339,"MEAN_ANOMALY":205.1047,"EPHEMERIS_TYPE":0,"CLASSIFICATION_TYPE":"U","NORAD_CAT_ID":67796,"ELEMENT_SET_NO":999,"REV_AT_EPOCH":55579,"BSTAR":0.00019684,"MEAN_MOTION_DOT":0.00010207,"MEAN_MOTION_DDOT":0}]
